{
  "type": "FeatureCollection",
  "features": [
    {
      "type": "Feature",
      "properties": {
        "norad_id": 32353,
        "name": "FENGYUN 1C DEB",
        "group": "fengyun-1c-debris",
        "lat": -46.333186838760305,
        "lon": 167.52101183184175,
        "alt_km": 901.0029322853088,
        "timestamp": "2025-12-07T11:27:50.288769+00:00",
        "meta_object_name": "FENGYUN 1C DEB",
        "meta_object_id": "1999-025CYW",
        "meta_epoch": "2025-12-06T18:35:01.660992",
        "meta_mean_motion": 14.03722153,
        "meta_eccentricity": 0.01262831,
        "meta_inclination": 98.9218,
        "meta_ra_of_asc_node": 157.3585,
        "meta_arg_of_pericenter": 215.8531,
        "meta_mean_anomaly": 143.4111,
        "meta_ephemeris_type": 0,
        "meta_classification_type": "U",
        "meta_norad_cat_id": 32353,
        "meta_element_set_no": 999,
        "meta_rev_at_epoch": 63110,
        "meta_bstar": 0.004997805,
        "meta_mean_motion_dot": 8.402e-05,
        "meta_mean_motion_ddot": 0,
        "tle_line1": "1 32353U 99025CYW 25340.77432478  .00008402  00000+0  49978-2 0  9999",
        "tle_line2": "2 32353  98.9218 157.3585 0126283 215.8531 143.4111 14.03722153631100"
      },
      "geometry": {
        "type": "Point",
        "coordinates": [
          167.52101183184175,
          -46.333186838760305
        ]
      }
    },
    {
      "type": "Feature",
      "properties": {
        "norad_id": 32355,
        "name": "FENGYUN 1C DEB",
        "group": "fengyun-1c-debris",
        "lat": 3.119557035745965,
        "lon": -92.58229277820088,
        "alt_km": 464.7747770933056,
        "timestamp": "2025-12-07T11:27:50.288779+00:00",
        "meta_object_name": "FENGYUN 1C DEB",
        "meta_object_id": "1999-025CYY",
        "meta_epoch": "2025-11-30T13:45:12.852288",
        "meta_mean_motion": 15.2698689,
        "meta_eccentricity": 0.00340494,
        "meta_inclination": 100.3462,
        "meta_ra_of_asc_node": 258.4114,
        "meta_arg_of_pericenter": 91.868,
        "meta_mean_anomaly": 83.2659,
        "meta_ephemeris_type": 0,
        "meta_classification_type": "U",
        "meta_norad_cat_id": 32355,
        "meta_element_set_no": 999,
        "meta_rev_at_epoch": 64804,
        "meta_bstar": 0.0114101,
        "meta_mean_motion_dot": 0.00320062,
        "meta_mean_motion_ddot": 0,
        "tle_line1": "1 32355U 99025CYY 25334.57306542  .00320062  00000+0  11410-1 0  9992",
        "tle_line2": "2 32355 100.3462 258.4114 0034049  91.8680  83.2659 15.26986890648042"
      },
      "geometry": {
        "type": "Point",
        "coordinates": [
          -92.58229277820088,
          3.119557035745965
        ]
      }
    },
    {
      "type": "Feature",
      "properties": {
        "norad_id": 32356,
        "name": "FENGYUN 1C DEB",
        "group": "fengyun-1c-debris",
        "lat": 27.202476938862674,
        "lon": 28.318617196682514,
        "alt_km": 930.5963086966794,
        "timestamp": "2025-12-07T11:27:50.288790+00:00",
        "meta_object_name": "FENGYUN 1C DEB",
        "meta_object_id": "1999-025CYZ",
        "meta_epoch": "2025-12-06T21:03:46.072512",
        "meta_mean_motion": 14.03321979,
        "meta_eccentricity": 0.01247724,
        "meta_inclination": 102.496,
        "meta_ra_of_asc_node": 200.9526,
        "meta_arg_of_pericenter": 29.641,
        "meta_mean_anomaly": 331.174,
        "meta_ephemeris_type": 0,
        "meta_classification_type": "U",
        "meta_norad_cat_id": 32356,
        "meta_element_set_no": 999,
        "meta_rev_at_epoch": 68305,
        "meta_bstar": 0.0034952501,
        "meta_mean_motion_dot": 5.781e-05,
        "meta_mean_motion_ddot": 0,
        "tle_line1": "1 32356U 99025CYZ 25340.87761658  .00005781  00000+0  34953-2 0  9992",
        "tle_line2": "2 32356 102.4960 200.9526 0124772  29.6410 331.1740 14.03321979683052"
      },
      "geometry": {
        "type": "Point",
        "coordinates": [
          28.318617196682514,
          27.202476938862674
        ]
      }
    },
    {
      "type": "Feature",
      "properties": {
        "norad_id": 32357,
        "name": "FENGYUN 1C DEB",
        "group": "fengyun-1c-debris",
        "lat": -69.17004874206017,
        "lon": 45.43024820361327,
        "alt_km": 976.6621238105708,
        "timestamp": "2025-12-07T11:27:50.288800+00:00",
        "meta_object_name": "FENGYUN 1C DEB",
        "meta_object_id": "1999-025CZA",
        "meta_epoch": "2025-12-03T20:59:33.570240",
        "meta_mean_motion": 13.68494988,
        "meta_eccentricity": 0.0493325,
        "meta_inclination": 98.8601,
        "meta_ra_of_asc_node": 17.9025,
        "meta_arg_of_pericenter": 211.2254,
        "meta_mean_anomaly": 330.7935,
        "meta_ephemeris_type": 0,
        "meta_classification_type": "U",
        "meta_norad_cat_id": 32357,
        "meta_element_set_no": 999,
        "meta_rev_at_epoch": 66666,
        "meta_bstar": 0.0053758,
        "meta_mean_motion_dot": 0.00010819,
        "meta_mean_motion_ddot": 0,
        "tle_line1": "1 32357U 99025CZA 25337.87469410  .00010819  00000+0  53758-2 0  9992",
        "tle_line2": "2 32357  98.8601  17.9025 0493325 211.2254 330.7935 13.68494988666661"
      },
      "geometry": {
        "type": "Point",
        "coordinates": [
          45.43024820361327,
          -69.17004874206017
        ]
      }
    },
    {
      "type": "Feature",
      "properties": {
        "norad_id": 32361,
        "name": "FENGYUN 1C DEB",
        "group": "fengyun-1c-debris",
        "lat": 74.69504217207421,
        "lon": 5.37023768892894,
        "alt_km": 683.9205209823676,
        "timestamp": "2025-12-07T11:27:50.288810+00:00",
        "meta_object_name": "FENGYUN 1C DEB",
        "meta_object_id": "1999-025CZE",
        "meta_epoch": "2025-11-30T15:14:44.805984",
        "meta_mean_motion": 14.50750787,
        "meta_eccentricity": 0.00468278,
        "meta_inclination": 98.8638,
        "meta_ra_of_asc_node": 32.9334,
        "meta_arg_of_pericenter": 80.9929,
        "meta_mean_anomaly": 279.656,
        "meta_ephemeris_type": 0,
        "meta_classification_type": "U",
        "meta_norad_cat_id": 32361,
        "meta_element_set_no": 999,
        "meta_rev_at_epoch": 96169,
        "meta_bstar": 0.0020354767,
        "meta_mean_motion_dot": 8.08e-05,
        "meta_mean_motion_ddot": 0,
        "tle_line1": "1 32361U 99025CZE 25334.63524081  .00008080  00000+0  20355-2 0  9998",
        "tle_line2": "2 32361  98.8638  32.9334 0046827  80.9929 279.6560 14.50750787961697"
      },
      "geometry": {
        "type": "Point",
        "coordinates": [
          5.37023768892894,
          74.69504217207421
        ]
      }
    },
    {
      "type": "Feature",
      "properties": {
        "norad_id": 32362,
        "name": "FENGYUN 1C DEB",
        "group": "fengyun-1c-debris",
        "lat": -79.71191260101028,
        "lon": 25.62656130635001,
        "alt_km": 839.4237390478293,
        "timestamp": "2025-12-07T11:27:50.288820+00:00",
        "meta_object_name": "FENGYUN 1C DEB",
        "meta_object_id": "1999-025CZF",
        "meta_epoch": "2025-12-06T09:29:07.337184",
        "meta_mean_motion": 13.65125485,
        "meta_eccentricity": 0.02756747,
        "meta_inclination": 99.8444,
        "meta_ra_of_asc_node": 311.4753,
        "meta_arg_of_pericenter": 301.3044,
        "meta_mean_anomaly": 56.1375,
        "meta_ephemeris_type": 0,
        "meta_classification_type": "U",
        "meta_norad_cat_id": 32362,
        "meta_element_set_no": 999,
        "meta_rev_at_epoch": 91043,
        "meta_bstar": 0.0062320548,
        "meta_mean_motion_dot": 6.505e-05,
        "meta_mean_motion_ddot": 0,
        "tle_line1": "1 32362U 99025CZF 25340.39522381  .00006505  00000+0  62321-2 0  9999",
        "tle_line2": "2 32362  99.8444 311.4753 0275674 301.3044  56.1375 13.65125485910430"
      },
      "geometry": {
        "type": "Point",
        "coordinates": [
          25.62656130635001,
          -79.71191260101028
        ]
      }
    },
    {
      "type": "Feature",
      "properties": {
        "norad_id": 32363,
        "name": "FENGYUN 1C DEB",
        "group": "fengyun-1c-debris",
        "lat": 9.674318393159872,
        "lon": 120.09745968009246,
        "alt_km": 386.29932938445836,
        "timestamp": "2025-12-07T11:27:50.288830+00:00",
        "meta_object_name": "FENGYUN 1C DEB",
        "meta_object_id": "1999-025CZG",
        "meta_epoch": "2025-12-06T03:40:07.296672",
        "meta_mean_motion": 15.460546,
        "meta_eccentricity": 0.00642337,
        "meta_inclination": 98.333,
        "meta_ra_of_asc_node": 297.1439,
        "meta_arg_of_pericenter": 164.1635,
        "meta_mean_anomaly": 196.164,
        "meta_ephemeris_type": 0,
        "meta_classification_type": "U",
        "meta_norad_cat_id": 32363,
        "meta_element_set_no": 999,
        "meta_rev_at_epoch": 96706,
        "meta_bstar": 0.002261669,
        "meta_mean_motion_dot": 0.00121152,
        "meta_mean_motion_ddot": 0,
        "tle_line1": "1 32363U 99025CZG 25340.15286223  .00121152  00000+0  22617-2 0  9996",
        "tle_line2": "2 32363  98.3330 297.1439 0064233 164.1635 196.1640 15.46054600967060"
      },
      "geometry": {
        "type": "Point",
        "coordinates": [
          120.09745968009246,
          9.674318393159872
        ]
      }
    }
  ]
}